{"type": "FeatureCollection", "features": [{"type": "Feature", "properties": {"norad_id": 24946, "name": "IRIDIUM 33", "group": "iridium-33-debris", "lat": -48.13878558800937, "lon": -106.68567818652654, "alt_km": 777.3517072624354, "timestamp": "2025-12-10T05:46:14.210606+00:00", "meta": {"OBJECT_NAME": "IRIDIUM 33", "OBJECT_ID": "1997-051C", "EPOCH": "2025-12-09T06:57:17.894016", "MEAN_MOTION": 14.35033739, "ECCENTRICITY": 0.0006648, "INCLINATION": 86.387, "RA_OF_ASC_NODE": 69.6697, "ARG_OF_PERICENTER": 213.1217, "MEAN_ANOMALY": 146.9564, "EPHEMERIS_TYPE": 0, "CLASSIFICATION_TYPE": "U", "NORAD_CAT_ID": 24946, "ELEMENT_SET_NO": 999, "REV_AT_EPOCH": 47785, "BSTAR": 0.00021762, "MEAN_MOTION_DOT": 6.39e-06, "MEAN_MOTION_DDOT": 0}, "tle": {"line1": "1 24946U 97051C   25343.28979044  .00000639  00000+0  21762-3 0  9995", "line2": "2 24946  86.3870  69.6697 0006648 213.1217 146.9564 14.35033739477857"}}, "geometry": {"type": "Point", "coordinates": [-106.68567818652654, -48.13878558800937]}}, {"type": "Feature", "properties": {"norad_id": 33773, "name": "IRIDIUM 33 DEB", "group": "iridium-33-debris", "lat": 68.43717838611018, "lon": -127.51453302491356, "alt_km": 734.7923176795493, "timestamp": "2025-12-10T05:46:14.210659+00:00", "meta": {"OBJECT_NAME": "IRIDIUM 33 DEB", "OBJECT_ID": "1997-051L", "EPOCH": "2025-12-09T15:56:42.177984", "MEAN_MOTION": 14.43247151, "ECCENTRICITY": 0.0012193, "INCLINATION": 86.4014, "RA_OF_ASC_NODE": 61.8927, "ARG_OF_PERICENTER": 155.4833, "MEAN_ANOMALY": 204.695, "EPHEMERIS_TYPE": 0, "CLASSIFICATION_TYPE": "U", "NORAD_CAT_ID": 33773, "ELEMENT_SET_NO": 999, "REV_AT_EPOCH": 88303, "BSTAR": 0.00053841, "MEAN_MOTION_DOT": 1.832e-05, "MEAN_MOTION_DDOT": 0}, "tle": {"line1": "1 33773U 97051L   25343.66437706  .00001832  00000+0  53841-3 0  9998", "line2": "2 33773  86.4014  61.8927 0012193 155.4833 204.6950 14.43247151883036"}}, "geometry": {"type": "Point", "coordinates": [-127.51453302491356, 68.43717838611018]}}, {"type": "Feature", "properties": {"norad_id": 33775, "name": "IRIDIUM 33 DEB", "group": "iridium-33-debris", "lat": -31.059007775395347, "lon": -127.18456577631147, "alt_km": 753.2183908444576, "timestamp": "2025-12-10T05:46:14.210676+00:00", "meta": {"OBJECT_NAME": "IRIDIUM 33 DEB", "OBJECT_ID": "1997-051N", "EPOCH": "2025-12-09T14:26:01.423104", "MEAN_MOTION": 14.41458737, "ECCENTRICITY": 0.0013944, "INCLINATION": 86.364, "RA_OF_ASC_NODE": 50.8934, "ARG_OF_PERICENTER": 164.3139, "MEAN_ANOMALY": 332.5697, "EPHEMERIS_TYPE": 0, "CLASSIFICATION_TYPE": "U", "NORAD_CAT_ID": 33775, "ELEMENT_SET_NO": 999, "REV_AT_EPOCH": 88095, "BSTAR": 0.00057548, "MEAN_MOTION_DOT": 1.888e-05, "MEAN_MOTION_DDOT": 0}, "tle": {"line1": "1 33775U 97051N   25343.60140536  .00001888  00000+0  57548-3 0  9995", "line2": "2 33775  86.3640  50.8934 0013944 164.3139 332.5697 14.41458737880950"}}, "geometry": {"type": "Point", "coordinates": [-127.18456577631147, -31.059007775395347]}}, {"type": "Feature", "properties": {"norad_id": 33776, "name": "IRIDIUM 33 DEB", "group": "iridium-33-debris", "lat": 70.16634685777035, "lon": -108.21600395222855, "alt_km": 757.506903562622, "timestamp": "2025-12-10T05:46:14.210690+00:00", "meta": {"OBJECT_NAME": "IRIDIUM 33 DEB", "OBJECT_ID": "1997-051P", "EPOCH": "2025-12-09T18:17:03.768288", "MEAN_MOTION": 14.38227801, "ECCENTRICITY": 0.0013985, "INCLINATION": 86.4038, "RA_OF_ASC_NODE": 82.0263, "ARG_OF_PERICENTER": 200.3153, "MEAN_ANOMALY": 312.9237, "EPHEMERIS_TYPE": 0, "CLASSIFICATION_TYPE": "U", "NORAD_CAT_ID": 33776, "ELEMENT_SET_NO": 999, "REV_AT_EPOCH": 88039, "BSTAR": 0.00057833, "MEAN_MOTION_DOT": 1.777e-05, "MEAN_MOTION_DDOT": 0}, "tle": {"line1": "1 33776U 97051P   25343.76184917  .00001777  00000+0  57833-3 0  9998", "line2": "2 33776  86.4038  82.0263 0013985 200.3153 312.9237 14.38227801880399"}}, "geometry": {"type": "Point", "coordinates": [-108.21600395222855, 70.16634685777035]}}, {"type": "Feature", "properties": {"norad_id": 33777, "name": "IRIDIUM 33 DEB", "group": "iridium-33-debris", "lat": 78.14562785865715, "lon": -161.27182087815183, "alt_km": 703.6381196973844, "timestamp": "2025-12-10T05:46:14.210704+00:00", "meta": {"OBJECT_NAME": "IRIDIUM 33 DEB", "OBJECT_ID": "1997-051Q", "EPOCH": "2025-12-09T09:30:28.800288", "MEAN_MOTION": 14.5557564, "ECCENTRICITY": 0.00050654, "INCLINATION": 86.3783, "RA_OF_ASC_NODE": 36.6577, "ARG_OF_PERICENTER": 264.7925, "MEAN_ANOMALY": 95.2705, "EPHEMERIS_TYPE": 0, "CLASSIFICATION_TYPE": "U", "NORAD_CAT_ID": 33777, "ELEMENT_SET_NO": 999, "REV_AT_EPOCH": 88485, "BSTAR": 0.0013749308, "MEAN_MOTION_DOT": 6.014e-05, "MEAN_MOTION_DDOT": 0}, "tle": {"line1": "1 33777U 97051Q   25343.39616667  .00006014  00000+0  13749-2 0  9996", "line2": "2 33777  86.3783  36.6577 0005065 264.7925  95.2705 14.55575640884852"}}, "geometry": {"type": "Point", "coordinates": [-161.27182087815183, 78.14562785865715]}}, {"type": "Feature", "properties": {"norad_id": 33850, "name": "IRIDIUM 33 DEB", "group": "iridium-33-debris", "lat": -5.86086770155798, "lon": -148.36926752028035, "alt_km": 747.1364892581951, "timestamp": "2025-12-10T05:46:14.210716+00:00", "meta": {"OBJECT_NAME": "IRIDIUM 33 DEB", "OBJECT_ID": "1997-051T", "EPOCH": "2025-12-09T12:49:17.886720", "MEAN_MOTION": 14.42137321, "ECCENTRICITY": 0.0011876, "INCLINATION": 86.342, "RA_OF_ASC_NODE": 31.558, "ARG_OF_PERICENTER": 170.9459, "MEAN_ANOMALY": 310.6825, "EPHEMERIS_TYPE": 0, "CLASSIFICATION_TYPE": "U", "NORAD_CAT_ID": 33850, "ELEMENT_SET_NO": 999, "REV_AT_EPOCH": 88106, "BSTAR": 0.00056175, "MEAN_MOTION_DOT": 1.868e-05, "MEAN_MOTION_DDOT": 0}, "tle": {"line1": "1 33850U 97051T   25343.53423480  .00001868  00000+0  56175-3 0  9996", "line2": "2 33850  86.3420  31.5580 0011876 170.9459 310.6825 14.42137321881060"}}, "geometry": {"type": "Point", "coordinates": [-148.36926752028035, -5.86086770155798]}}, {"type": "Feature", "properties": {"norad_id": 33853, "name": "IRIDIUM 33 DEB", "group": "iridium-33-debris", "lat": -55.43990461703533, "lon": 176.73772299489633, "alt_km": 755.0401614404609, "timestamp": "2025-12-10T05:46:14.210729+00:00", "meta": {"OBJECT_NAME": "IRIDIUM 33 DEB", "OBJECT_ID": "1997-051W", "EPOCH": "2025-12-09T12:13:24.016800", "MEAN_MOTION": 13.99031995, "ECCENTRICITY": 0.02069783, "INCLINATION": 85.9998, "RA_OF_ASC_NODE": 351.2277, "ARG_OF_PERICENTER": 245.8173, "MEAN_ANOMALY": 269.932, "EPHEMERIS_TYPE": 0, "CLASSIFICATION_TYPE": "U", "NORAD_CAT_ID": 33853, "ELEMENT_SET_NO": 999, "REV_AT_EPOCH": 85300, "BSTAR": 0.0029960339, "MEAN_MOTION_DOT": 5.22e-05, "MEAN_MOTION_DDOT": 0}, "tle": {"line1": "1 33853U 97051W   25343.50930575  .00005220  00000+0  29960-2 0  9991", "line2": "2 33853  85.9998 351.2277 0206978 245.8173 269.9320 13.99031995853007"}}, "geometry": {"type": "Point", "coordinates": [176.73772299489633, -55.43990461703533]}}, {"type": "Feature", "properties": {"norad_id": 33860, "name": "IRIDIUM 33 DEB", "group": "iridium-33-debris", "lat": -72.75677155865773, "lon": -139.89819316467546, "alt_km": 679.2405269561132, "timestamp": "2025-12-10T05:46:14.210741+00:00", "meta": {"OBJECT_NAME": "IRIDIUM 33 DEB", "OBJECT_ID": "1997-051AD", "EPOCH": "2025-12-09T21:13:16.278816", "MEAN_MOTION": 14.67309939, "ECCENTRICITY": 0.0007825, "INCLINATION": 86.3835, "RA_OF_ASC_NODE": 28.5019, "ARG_OF_PERICENTER": 7.8125, "MEAN_ANOMALY": 164.8827, "EPHEMERIS_TYPE": 0, "CLASSIFICATION_TYPE": "U", "NORAD_CAT_ID": 33860, "ELEMENT_SET_NO": 999, "REV_AT_EPOCH": 88680, "BSTAR": 0.0019516, "MEAN_MOTION_DOT": 0.00011043, "MEAN_MOTION_DDOT": 0}, "tle": {"line1": "1 33860U 97051AD  25343.88421619  .00011043  00000+0  19516-2 0  9990", "line2": "2 33860  86.3835  28.5019 0007825   7.8125 164.8827 14.67309939886802"}}, "geometry": {"type": "Point", "coordinates": [-139.89819316467546, -72.75677155865773]}}, {"type": "Feature", "properties": {"norad_id": 33862, "name": "IRIDIUM 33 DEB", "group": "iridium-33-debris", "lat": -86.36497331952361, "lon": -60.02833607789381, "alt_km": 707.4248226512818, "timestamp": "2025-12-10T05:46:14.210752+00:00", "meta": {"OBJECT_NAME": "IRIDIUM 33 DEB", "OBJECT_ID": "1997-051AF", "EPOCH": "2025-12-09T10:37:00.405120", "MEAN_MOTION": 14.69387938, "ECCENTRICITY": 0.00537298, "INCLINATION": 86.4087, "RA_OF_ASC_NODE": 38.984, "ARG_OF_PERICENTER": 80.2159, "MEAN_ANOMALY": 290.4324, "EPHEMERIS_TYPE": 0, "CLASSIFICATION_TYPE": "U", "NORAD_CAT_ID": 33862, "ELEMENT_SET_NO": 999, "REV_AT_EPOCH": 88775, "BSTAR": 0.0018727165, "MEAN_MOTION_DOT": 0.00011351, "MEAN_MOTION_DDOT": 0}, "tle": {"line1": "1 33862U 97051AF  25343.44236580  .00011351  00000+0  18727-2 0  9990", "line2": "2 33862  86.4087  38.9840 0053729  80.2159 290.4324 14.69387938887757"}}, "geometry": {"type": "Point", "coordinates": [-60.02833607789381, -86.36497331952361]}}, {"type": "Feature", "properties": {"norad_id": 33866, "name": "IRIDIUM 33 DEB", "group": "iridium-33-debris", "lat": 11.08531801854504, "lon": 94.81941678072079, "alt_km": 885.1524243789063, "timestamp": "2025-12-10T05:46:14.210764+00:00", "meta": {"OBJECT_NAME": "IRIDIUM 33 DEB", "OBJECT_ID": "1997-051AK", "EPOCH": "2025-12-09T18:38:03.505344", "MEAN_MOTION": 14.25259754, "ECCENTRICITY": 0.0114241, "INCLINATION": 86.3, "RA_OF_ASC_NODE": 94.2893, "ARG_OF_PERICENTER": 170.8261, "MEAN_ANOMALY": 341.5576, "EPHEMERIS_TYPE": 0, "CLASSIFICATION_TYPE": "U", "NORAD_CAT_ID": 33866, "ELEMENT_SET_NO": 999, "REV_AT_EPOCH": 86768, "BSTAR": 0.0012073, "MEAN_MOTION_DOT": 3.058e-05, "MEAN_MOTION_DDOT": 0}, "tle": {"line1": "1 33866U 97051AK  25343.77642946  .00003058  00000+0  12073-2 0  9990", "line2": "2 33866  86.3000  94.2893 0114241 170.8261 341.5576 14.25259754867688"}}, "geometry": {"type": "Point", "coordinates": [94.81941678072079, 11.08531801854504]}}]}